[{"OBJECT_NAME":"UFO 10 (USA 146)","OBJECT_ID":"1999-063A","EPOCH":"2026-03-04T03:39:39.543264","MEAN_MOTION":1.00273818,"ECCENTRICITY":0.0005299,"INCLINATION":9.8479,"RA_OF_ASC_NODE":27.7922,"ARG_OF_PERICENTER":294.7189,"MEAN_ANOMALY":231.4764,"EPHEMERIS_TYPE":0,"CLASSIFICATION_TYPE":"U","NORAD_CAT_ID":25967,"ELEMENT_SET_NO":999,"REV_AT_EPOCH":9629,"BSTAR":0,"MEAN_MOTION_DOT":-1.96e-6,"MEAN_MOTION_DDOT":0},{"OBJECT_NAME":"ASIASTAR","OBJECT_ID":"2000-016A","EPOCH":"2026-03-03T23:07:52.029696","MEAN_MOTION":1.00271712,"ECCENTRICITY":0.0004552,"INCLINATION":8.886,"RA_OF_ASC_NODE":59.2678,"ARG_OF_PERICENTER":291.5573,"MEAN_ANOMALY":262.8739,"EPHEMERIS_TYPE":0,"CLASSIFICATION_TYPE":"U","NORAD_CAT_ID":26107,"ELEMENT_SET_NO":999,"REV_AT_EPOCH":9486,"BSTAR":0,"MEAN_MOTION_DOT":-3.43e-6,"MEAN_MOTION_DDOT":0},{"OBJECT_NAME":"USA 149 (DSP 20)","OBJECT_ID":"2000-024A","EPOCH":"2026-03-04T01:16:08.302368","MEAN_MOTION":1.00275993,"ECCENTRICITY":0.0002233,"INCLINATION":13.0915,"RA_OF_ASC_NODE":12.5906,"ARG_OF_PERICENTER":3.9949,"MEAN_ANOMALY":358.8834,"EPHEMERIS_TYPE":0,"CLASSIFICATION_TYPE":"U","NORAD_CAT_ID":26356,"ELEMENT_SET_NO":999,"REV_AT_EPOCH":3186,"BSTAR":0,"MEAN_MOTION_DOT":8.7e-7,"MEAN_MOTION_DDOT":0},{"OBJECT_NAME":"TDRS 8","OBJECT_ID":"2000-034A","EPOCH":"2026-03-03T21:19:30.353664","MEAN_MOTION":1.00276605,"ECCENTRICITY":0.0006151,"INCLINATION":12.518,"RA_OF_ASC_NODE":32.1998,"ARG_OF_PERICENTER":307.6527,"MEAN_ANOMALY":226.4214,"EPHEMERIS_TYPE":0,"CLASSIFICATION_TYPE":"U","NORAD_CAT_ID":26388,"ELEMENT_SET_NO":999,"REV_AT_EPOCH":9412,"BSTAR":0,"MEAN_MOTION_DOT":-2.03e-6,"MEAN_MOTION_DDOT":0},{"OBJECT_NAME":"NSS-11","OBJECT_ID":"2000-059A","EPOCH":"2026-03-04T02:53:21.480864","MEAN_MOTION":1.00271899,"ECCENTRICITY":0.0003168,"INCLINATION":1.8553,"RA_OF_ASC_NODE":82.6752,"ARG_OF_PERICENTER":265.4583,"MEAN_ANOMALY":33.0676,"EPHEMERIS_TYPE":0,"CLASSIFICATION_TYPE":"U","NORAD_CAT_ID":26554,"ELEMENT_SET_NO":999,"REV_AT_EPOCH":4023,"BSTAR":0,"MEAN_MOTION_DOT":1.3e-7,"MEAN_MOTION_DDOT":0},{"OBJECT_NAME":"USA 153","OBJECT_ID":"2000-065A","EPOCH":"2026-03-03T19:50:47.883840","MEAN_MOTION":1.00269888,"ECCENTRICITY":0.0002549,"INCLINATION":11.4443,"RA_OF_ASC_NODE":36.2767,"ARG_OF_PERICENTER":344.4445,"MEAN_ANOMALY":212.9659,"EPHEMERIS_TYPE":0,"CLASSIFICATION_TYPE":"U","NORAD_CAT_ID":26575,"ELEMENT_SET_NO":999,"REV_AT_EPOCH":3187,"BSTAR":0,"MEAN_MOTION_DOT":-3.34e-6,"MEAN_MOTION_DDOT":0},{"OBJECT_NAME":"AMC-6","OBJECT_ID":"2000-067A","EPOCH":"2026-03-04T02:15:38.733120","MEAN_MOTION":1.00271968,"ECCENTRICITY":0.0003116,"INCLINATION":0.0504,"RA_OF_ASC_NODE":306.7725,"ARG_OF_PERICENTER":39.4699,"MEAN_ANOMALY":74.4412,"EPHEMERIS_TYPE":0,"CLASSIFICATION_TYPE":"U","NORAD_CAT_ID":26580,"ELEMENT_SET_NO":999,"REV_AT_EPOCH":9283,"BSTAR":0,"MEAN_MOTION_DOT":7.6e-7,"MEAN_MOTION_DDOT":0},{"OBJECT_NAME":"USA 157 (MILSTAR-2 2)","OBJECT_ID":"2001-009A","EPOCH":"2026-03-04T01:20:30.383808","MEAN_MOTION":1.00279564,"ECCENTRICITY":0.0038095,"INCLINATION":11.4274,"RA_OF_ASC_NODE":20.4046,"ARG_OF_PERICENTER":183.404,"MEAN_ANOMALY":188.187,"EPHEMERIS_TYPE":0,"CLASSIFICATION_TYPE":"U","NORAD_CAT_ID":26715,"ELEMENT_SET_NO":999,"REV_AT_EPOCH":3189,"BSTAR":0,"MEAN_MOTION_DOT":1.01e-6,"MEAN_MOTION_DDOT":0},{"OBJECT_NAME":"INTELSAT 10 (IS-10)","OBJECT_ID":"2001-019A","EPOCH":"2026-03-03T19:54:10.059840","MEAN_MOTION":0.9904203,"ECCENTRICITY":0.0005997,"INCLINATION":8.8245,"RA_OF_ASC_NODE":60.3264,"ARG_OF_PERICENTER":265.5847,"MEAN_ANOMALY":279.9653,"EPHEMERIS_TYPE":0,"CLASSIFICATION_TYPE":"U","NORAD_CAT_ID":26766,"ELEMENT_SET_NO":999,"REV_AT_EPOCH":4453,"BSTAR":0,"MEAN_MOTION_DOT":-2.97e-6,"MEAN_MOTION_DDOT":0},{"OBJECT_NAME":"USA 159 (DSP 21)","OBJECT_ID":"2001-033A","EPOCH":"2026-03-02T11:01:58.759968","MEAN_MOTION":1.00279769,"ECCENTRICITY":0.00022814,"INCLINATION":12.6874,"RA_OF_ASC_NODE":17.1829,"ARG_OF_PERICENTER":242.9429,"MEAN_ANOMALY":16.5978,"EPHEMERIS_TYPE":0,"CLASSIFICATION_TYPE":"U","NORAD_CAT_ID":26880,"ELEMENT_SET_NO":999,"REV_AT_EPOCH":3189,"BSTAR":0,"MEAN_MOTION_DOT":-3.08e-6,"MEAN_MOTION_DDOT":0},{"OBJECT_NAME":"INTELSAT 902 (IS-902)","OBJECT_ID":"2001-039A","EPOCH":"2026-03-03T00:55:38.255808","MEAN_MOTION":1.00270738,"ECCENTRICITY":0.00045981,"INCLINATION":5.8488,"RA_OF_ASC_NODE":73.0785,"ARG_OF_PERICENTER":274.7996,"MEAN_ANOMALY":136.7372,"EPHEMERIS_TYPE":0,"CLASSIFICATION_TYPE":"U","NORAD_CAT_ID":26900,"ELEMENT_SET_NO":999,"REV_AT_EPOCH":8963,"BSTAR":0,"MEAN_MOTION_DOT":-2.96e-6,"MEAN_MOTION_DDOT":0},{"OBJECT_NAME":"USA 164 (MILSTAR-2 3)","OBJECT_ID":"2002-001A","EPOCH":"2026-03-04T02:08:40.765344","MEAN_MOTION":1.0026941,"ECCENTRICITY":0.0099455,"INCLINATION":11.0549,"RA_OF_ASC_NODE":22.5334,"ARG_OF_PERICENTER":4.6986,"MEAN_ANOMALY":185.7156,"EPHEMERIS_TYPE":0,"CLASSIFICATION_TYPE":"U","NORAD_CAT_ID":27168,"ELEMENT_SET_NO":999,"REV_AT_EPOCH":3190,"BSTAR":0,"MEAN_MOTION_DOT":8.9e-7,"MEAN_MOTION_DDOT":0},{"OBJECT_NAME":"INTELSAT 904 (IS-904)","OBJECT_ID":"2002-007A","EPOCH":"2026-03-03T20:46:20.059680","MEAN_MOTION":1.00273362,"ECCENTRICITY":0.0006109,"INCLINATION":6.6574,"RA_OF_ASC_NODE":70.4474,"ARG_OF_PERICENTER":305.4536,"MEAN_ANOMALY":65.8068,"EPHEMERIS_TYPE":0,"CLASSIFICATION_TYPE":"U","NORAD_CAT_ID":27380,"ELEMENT_SET_NO":999,"REV_AT_EPOCH":5071,"BSTAR":0,"MEAN_MOTION_DOT":-2.36e-6,"MEAN_MOTION_DDOT":0},{"OBJECT_NAME":"DIRECTV 5 (TEMPO 1)","OBJECT_ID":"2002-023A","EPOCH":"2026-03-04T03:14:41.935776","MEAN_MOTION":1.00272238,"ECCENTRICITY":0.0003607,"INCLINATION":4.6098,"RA_OF_ASC_NODE":76.6238,"ARG_OF_PERICENTER":274.1465,"MEAN_ANOMALY":109.6848,"EPHEMERIS_TYPE":0,"CLASSIFICATION_TYPE":"U","NORAD_CAT_ID":27426,"ELEMENT_SET_NO":999,"REV_AT_EPOCH":8707,"BSTAR":0,"MEAN_MOTION_DOT":-6.7e-7,"MEAN_MOTION_DDOT":0},{"OBJECT_NAME":"INTELSAT 905 (IS-905)","OBJECT_ID":"2002-027A","EPOCH":"2026-03-04T03:06:57.676608","MEAN_MOTION":1.00273422,"ECCENTRICITY":0.0003163,"INCLINATION":6.49,"RA_OF_ASC_NODE":71.064,"ARG_OF_PERICENTER":276.675,"MEAN_ANOMALY":83.685,"EPHEMERIS_TYPE":0,"CLASSIFICATION_TYPE":"U","NORAD_CAT_ID":27438,"ELEMENT_SET_NO":999,"REV_AT_EPOCH":5030,"BSTAR":0,"MEAN_MOTION_DOT":8.4e-7,"MEAN_MOTION_DDOT":0},{"OBJECT_NAME":"GALAXY 3C (G-3C)","OBJECT_ID":"2002-030A","EPOCH":"2026-03-04T03:39:15.161184","MEAN_MOTION":1.00271638,"ECCENTRICITY":0.000101,"INCLINATION":3.4639,"RA_OF_ASC_NODE":79.4641,"ARG_OF_PERICENTER":27.1185,"MEAN_ANOMALY":15.2928,"EPHEMERIS_TYPE":0,"CLASSIFICATION_TYPE":"U","NORAD_CAT_ID":27445,"ELEMENT_SET_NO":999,"REV_AT_EPOCH":4544,"BSTAR":0,"MEAN_MOTION_DOT":-1.63e-6,"MEAN_MOTION_DDOT":0},{"OBJECT_NAME":"INTELSAT 906 (IS-906)","OBJECT_ID":"2002-041A","EPOCH":"2026-03-03T13:09:25.027776","MEAN_MOTION":1.00272758,"ECCENTRICITY":0.0003244,"INCLINATION":5.534,"RA_OF_ASC_NODE":74.2228,"ARG_OF_PERICENTER":256.5254,"MEAN_ANOMALY":92.0662,"EPHEMERIS_TYPE":0,"CLASSIFICATION_TYPE":"U","NORAD_CAT_ID":27513,"ELEMENT_SET_NO":999,"REV_AT_EPOCH":8596,"BSTAR":0,"MEAN_MOTION_DOT":1.0e-8,"MEAN_MOTION_DDOT":0}]
